0 FENGYUN 1C DEB
1 30552U 99025AKS 13281.30241807  .00002284  00000-0  12365-2 0   222
2 30552 099.0058 301.6957 0023907 125.1105 006.1668 14.13394909343397
0 FENGYUN 1C DEB
1 30552U 99025AKS 13283.84953939  .00002698  00000-0  14556-2 0   233
2 30552 099.0059 304.2593 0023812 118.3777 006.0971 14.13411743343759
0 FENGYUN 1C DEB
1 30552U 99025AKS 13286.02539094  .00002904  00000-0  15647-2 0   241
2 30552 099.0054 306.4497 0023689 112.6420 277.0678 14.13419755344065
0 FENGYUN 1C DEB
1 30552U 99025AKS 13288.87532701  .00003342  00000-0  17964-2 0   256
2 30552 099.0044 309.3182 0023594 104.9258 018.1860 14.13440380344464
0 FENGYUN 1C DEB
1 30552U 99025AKS 13291.84869390  .00003099  00000-0  16670-2 0   267
2 30552 099.0037 312.3108 0023443 096.8791 027.5643 14.13457811344888
0 FENGYUN 1C DEB
1 30552U 99025AKS 13294.02277990  .00003853  00000-0  20661-2 0   273
2 30552 099.0038 314.4982 0023278 091.0152 290.0622 14.13467843345191
